BEIDOU-2 IGSO-1 (C06)   
1 36828U 10036A   25348.90163916 -.00000024  00000+0  00000+0 0  9999
2 36828  54.2866 164.6279 0051256 215.8888 135.7931  1.00275796 56247
BEIDOU-2 G4 (C04)       
1 37210U 10057A   25353.72699543 -.00000090  00000+0  00000+0 0  9997
2 37210   3.2012  69.9134 0010432 192.6425 247.8166  1.00272088 55499
BEIDOU-2 IGSO-2 (C07)   
1 37256U 10068A   25353.71664558 -.00000193  00000+0  00000+0 0  9990
2 37256  47.8732 274.0632 0048411 216.3467 324.0365  1.00284373 54995
BEIDOU-2 IGSO-3 (C08)   
1 37384U 11013A   25353.64191898 -.00000168  00000+0  00000+0 0  9999
2 37384  62.1523  41.8505 0035344 187.8464 197.2749  1.00269211 53869
BEIDOU-2 IGSO-4 (C09)   
1 37763U 11038A   25351.97872181  .00000065  00000+0  00000+0 0  9997
2 37763  54.5836 167.2999 0149314 230.2426 136.1954  1.00281312 52838
BEIDOU-2 IGSO-5 (C10)   
1 37948U 11073A   25353.76200506 -.00000159  00000+0  00000+0 0  9991
2 37948  48.0071 273.7726 0109880 222.3250 320.2143  1.00289893 51336
BEIDOU-2 G5 (C05)       
1 38091U 12008A   25353.66911748  .00000079  00000+0  00000+0 0  9996
2 38091   3.1258  70.6861 0012969 231.3522  86.1393  1.00268606 50560
BEIDOU-2 M3 (C11)       
1 38250U 12018A   25353.30767803 -.00000078  00000+0  00000+0 0  9996
2 38250  55.9145 310.9364 0024195 274.9131  84.7979  1.86230015 92598
BEIDOU-2 M4 (C12)       
1 38251U 12018B   25353.23974074 -.00000078  00000+0  00000+0 0  9999
2 38251  55.8157 310.1670 0015393 278.4783  81.3347  1.86229684 92597
BEIDOU-2 M6 (C14)       
1 38775U 12050B   25353.48757685 -.00000052  00000+0  00000+0 0  9992
2 38775  56.3840  68.8435 0011333 343.6526  16.3469  1.86230927 89961
BEIDOU-2 G6 (C02)       
1 38953U 12059A   25353.83041266 -.00000153  00000+0  00000+0 0  9991
2 38953   3.9664  75.4373 0008226 292.2624 103.8748  1.00269116 48113
BEIDOU-3S IGSO-1S (C31) 
1 40549U 15019A   25352.83031053 -.00000183  00000+0  00000+0 0  9999
2 40549  49.5404 297.6395 0036331 194.0028 349.3621  1.00292047 39264
BEIDOU-3S M2S (C58)     
1 40748U 15037A   25353.44479116 -.00000076  00000+0  00000+0 0  9995
2 40748  55.0326 308.2324 0012208 268.7411  91.1083  1.86229497 70771
BEIDOU-3S M1S (C57)     
1 40749U 15037B   25353.13718567 -.00000078  00000+0  00000+0 0  9990
2 40749  55.0296 308.2337 0003631   1.0538 358.9355  1.86254044 70772
BEIDOU-3S IGSO-2S (C56) 
1 40938U 15053A   25353.71430557 -.00000111  00000+0  00000+0 0  9990
2 40938  49.4997 260.9235 0060519 188.6333 352.0393  1.00268614 37551
BEIDOU-2 IGSO-6 (C13)   
1 41434U 16021A   25352.60669951 -.00000141  00000+0  00000+0 0  9990
2 41434  59.9732  39.8392 0061005 230.2031 129.1398  1.00292299 35667
BEIDOU-2 G7 (C03)       
1 41586U 16037A   25353.66463331 -.00000330  00000+0  00000+0 0  9996
2 41586   1.7733  67.8469 0005143   2.9481   7.4377  1.00271972  5095
BEIDOU-3 M1 (C19)       
1 43001U 17069A   25353.25305488 -.00000055  00000+0  00000+0 0  9993
2 43001  56.5322  69.0186 0009566 302.1864  57.7554  1.86231412 55251
BEIDOU-3 M2 (C20)       
1 43002U 17069B   25353.19142986 -.00000055  00000+0  00000+0 0  9999
2 43002  56.5320  69.0565 0006519 330.2695  29.7276  1.86231009 55241
BEIDOU-3 M7 (C27)       
1 43107U 18003A   25352.39740844 -.00000085  00000+0  00000+0 0  9995
2 43107  54.4914 308.6174 0002889  69.2572 290.7611  1.86232527 53988
BEIDOU-3 M8 (C28)       
1 43108U 18003B   25353.41626194 -.00000077  00000+0  00000+0 0  9992
2 43108  54.4835 308.5648 0004569 277.2174  82.7201  1.86231091 54016
BEIDOU-3 M4 (C22)       
1 43207U 18018A   25352.24738606 -.00000065  00000+0  00000+0 0  9997
2 43207  56.4903  69.1221 0004163   6.0826 353.9513  1.86231297 53378
BEIDOU-3 M3 (C21)       
1 43208U 18018B   25353.38781235 -.00000053  00000+0  00000+0 0  9997
2 43208  56.4904  69.0885 0007021 313.7803  46.1968  1.86231460 53393
BEIDOU-3 M9 (C29)       
1 43245U 18029A   25353.06708891 -.00000078  00000+0  00000+0 0  9999
2 43245  54.3600 306.2474 0001574 291.2966  68.6763  1.86228424 52545
BEIDOU-3 M10 (C30)      
1 43246U 18029B   25351.39144300 -.00000090  00000+0  00000+0 0  9997
2 43246  54.3586 306.3321 0004199   3.5987 356.3911  1.86229120 52494
BEIDOU-2 IGSO-7 (C16)   
1 43539U 18057A   25349.32438797 -.00000023  00000+0  00000+0 0  9995
2 43539  55.1766 164.6485 0092621 235.2644 271.8458  1.00256546 27289
BEIDOU-3 M5 (C23)       
1 43581U 18062A   25351.07915928  .00000114  00000+0  00000+0 0  9999
2 43581  54.0895 188.4955 0002067 356.8892   3.1782  1.86228923 50243
BEIDOU-3 M6 (C24)       
1 43582U 18062B   25353.09001209  .00000104  00000+0  00000+0 0  9991
2 43582  54.0893 188.4162 0007838  47.7681 312.3611  1.86229981 50280
BEIDOU-3 M12 (C26)      
1 43602U 18067A   25353.02790962  .00000104  00000+0  00000+0 0  9993
2 43602  54.1834 187.1497 0009232  41.1657 318.9642  1.86227821 49765
BEIDOU-3 M11 (C25)      
1 43603U 18067B   25353.16243465  .00000103  00000+0  00000+0 0  9999
2 43603  54.1805 187.1091 0005641  36.9516 323.1468  1.86227328 49799
BEIDOU-3 M13 (C32)      
1 43622U 18072A   25353.65585003 -.00000051  00000+0  00000+0 0  9990
2 43622  56.4653  68.5911 0006094 298.8206  61.1557  1.86231092 49316
BEIDOU-3 M14 (C33)      
1 43623U 18072B   25353.52131505 -.00000052  00000+0  00000+0 0  9992
2 43623  56.4667  68.5895 0003397 329.9206  30.0966  1.86231112 49303
BEIDOU-3 M16 (C35)      
1 43647U 18078A   25352.60513806 -.00000081  00000+0  00000+0 0  9992
2 43647  54.2565 306.3163 0007331  19.8035 340.2135  1.86232416 48794
BEIDOU-3 M15 (C34)      
1 43648U 18078B   25353.27131206 -.00000076  00000+0  00000+0 0  9991
2 43648  54.2518 306.2933 0003969  20.1104 339.8954  1.86232317 48829
BEIDOU-3 G1 (C59)       
1 43683U 18085A   25353.79439906 -.00000256  00000+0  00000+0 0  9993
2 43683   2.6247 102.7592 0001615  47.0734   4.8160  1.00268797 26266
BEIDOU-3 M17 (C36)      
1 43706U 18093A   25353.70191215  .00000100  00000+0  00000+0 0  9994
2 43706  54.1746 188.3854 0006072 307.8819 234.4543  1.86228501 48197
BEIDOU-3 M18 (C37)      
1 43707U 18093B   25350.60674519  .00000115  00000+0  00000+0 0  9990
2 43707  54.1735 188.4822 0006318 353.2257   6.8349  1.86226770 48131
BEIDOU-2 G8 (C01)       
1 44231U 19027A   25353.50999363 -.00000224  00000+0  00000+0 0  9992
2 44231   1.6785  74.7229 0008196 258.5641  83.1013  1.00276563 24270
BEIDOU-3 IGSO-2 (C39)   
1 44337U 19035A   25353.36251907 -.00000057  00000+0  00000+0 0  9991
2 44337  55.2276 160.4432 0037558 202.2196 335.4821  1.00269441 23862
BEIDOU-3 M24 (C46)      
1 44542U 19061A   25353.36250552  .00000103  00000+0  00000+0 0  9994
2 44542  54.4002 188.7925 0009604  25.2605 334.8488  1.86229413 42443
BEIDOU-3 M23 (C45)      
1 44543U 19061B   25353.20461586  .00000104  00000+0  00000+0 0  9990
2 44543  54.3992 188.7663 0006055  24.9207 142.0550  1.86227724 42443
BEIDOU-3 IGSO-3 (C40)   
1 44709U 19073A   25324.29956875 -.00000206  00000+0  00000+0 0  9998
2 44709  55.1630 283.1590 0044538 191.5856 168.2409  1.00250097 22360
BEIDOU-3 M22 (C44)      
1 44793U 19078A   25353.20249241 -.00000077  00000+0  00000+0 0  9997
2 44793  54.1023 306.1592 0006038  24.3104 335.7082  1.86232161 41295
BEIDOU-3 M21 (C43)      
1 44794U 19078B   25350.65550611 -.00000095  00000+0  00000+0 0  9990
2 44794  54.0780 306.2132 0004116  11.9420 348.0544  1.86227668 41256
BEIDOU-3 M19 (C41)      
1 44864U 19090A   25353.70473713 -.00000050  00000+0  00000+0 0  9999
2 44864  56.3986  68.7306 0018280 284.9962 155.1499  1.86231654 40895
BEIDOU-3 M20 (C42)      
1 44865U 19090B   25353.55819116 -.00000052  00000+0  00000+0 0  9996
2 44865  56.4001  68.7697 0015458 297.1258 134.3818  1.86231656 40870
BEIDOU-3 G2 (C60)       
1 45344U 20017A   25353.56858068 -.00000118  00000+0  00000+0 0  9993
2 45344   2.5096  44.0024 0002079 233.0917  96.0359  1.00273166 21451
BEIDOU-3 G3 (C61)       
1 45807U 20040A   25353.66463331 -.00000331  00000+0  00000+0 0  9996
2 45807   2.0073  66.6426 0006438 309.3483  62.3662  1.00270870 20270
BEIDOU-3 G4 (C62)       
1 56564U 23066A   25353.81709671 -.00000086  00000+0  00000+0 0  9993
2 56564   0.8001 302.5987 0002729 226.4970  13.7807  1.00271581  9595
BEIDOU-3 M28 (C50)      
1 58654U 23207A   25352.34458061 -.00000066  00000+0  00000+0 0  9991
2 58654  55.5892  68.4116 0002650 272.4264  87.5728  1.86229821 13471
BEIDOU-3 M26 (C48)      
1 58655U 23207B   25353.21608814 -.00000057  00000+0  00000+0 0  9992
2 58655  55.5920  68.3684 0004042 258.4158 101.5732  1.86231346 13473
BEIDOU-3 M25 (C47)      
1 61186U 24168B   25353.79059130 -.00000074  00000+0  00000+0 0  9995
2 61186  54.6358 308.4762 0005452 299.3955 202.6516  1.86230278  8448
BEIDOU-3 M27 (C49)      
1 61187U 24168C   25353.57285531 -.00000076  00000+0  00000+0 0  9990
2 61187  54.6314 308.4673 0002515 339.7330 151.2797  1.86230430  5914
